[
    {
        "Altitude(m)": 714137.398632621,
        "Argument of Periapsis(deg)": 0.006834072711976239,
        "Eccentricity": 0.0,
        "Inclination(deg)": 45.0,
        "Latitude(deg)": -36.07334401361344,
        "Longitude(deg)": -64.0174079242088,
        "Mean Anomaly(deg)": -123.98917001151152,
        "RAAN(deg)": 169.99354883512507,
        "Satellite Name": "Constellation 1 762",
        "Satellite Number": 762,
        "Semi-Major Axis(m)": 7083131.272910544,
        "Time(s)": 114
    },
    {
        "Altitude(m)": 714149.4874674922,
        "Argument of Periapsis(deg)": 0.006894020718221645,
        "Eccentricity": 0.0,
        "Inclination(deg)": 45.0,
        "Latitude(deg)": -36.10294388646985,
        "Longitude(deg)": -63.95618784972125,
        "Mean Anomaly(deg)": -123.92846887126156,
        "RAAN(deg)": 169.99349224595952,
        "Satellite Name": "Constellation 1 762",
        "Satellite Number": 762,
        "Semi-Major Axis(m)": 7083131.272910544,
        "Time(s)": 115
    },
    {
        "Altitude(m)": 714161.5635412409,
        "Argument of Periapsis(deg)": 0.006953968724467052,
        "Eccentricity": 0.0,
        "Inclination(deg)": 45.0,
        "Latitude(deg)": -36.13250792596315,
        "Longitude(deg)": -63.894918924289406,
        "Mean Anomaly(deg)": -123.8677677310117,
        "RAAN(deg)": 169.99343565679393,
        "Satellite Name": "Constellation 1 762",
        "Satellite Number": 762,
        "Semi-Major Axis(m)": 7083131.272910544,
        "Time(s)": 116
    },
    {
        "Altitude(m)": 714173.6268103219,
        "Argument of Periapsis(deg)": 0.007013916730712457,
        "Eccentricity": 0.0,
        "Inclination(deg)": 45.0,
        "Latitude(deg)": -36.16203606755531,
        "Longitude(deg)": -63.833601117401756,
        "Mean Anomaly(deg)": -123.80706659076178,
        "RAAN(deg)": 169.99337906762838,
        "Satellite Name": "Constellation 1 762",
        "Satellite Number": 762,
        "Semi-Major Axis(m)": 7083131.272910544,
        "Time(s)": 117
    },
    {
        "Altitude(m)": 714185.6772312467,
        "Argument of Periapsis(deg)": 0.007073864736957864,
        "Eccentricity": 0.0,
        "Inclination(deg)": 45.0,
        "Latitude(deg)": -36.19152824665327,
        "Longitude(deg)": -63.77223439879409,
        "Mean Anomaly(deg)": -123.74636545051186,
        "RAAN(deg)": 169.99332247846283,
        "Satellite Name": "Constellation 1 762",
        "Satellite Number": 762,
        "Semi-Major Axis(m)": 7083131.272910544,
        "Time(s)": 118
    },
    {
        "Altitude(m)": 714197.714760566,
        "Argument of Periapsis(deg)": 0.0071338127432032696,
        "Eccentricity": 0.0,
        "Inclination(deg)": 45.0,
        "Latitude(deg)": -36.22098439860947,
        "Longitude(deg)": -63.71081890654766,
        "Mean Anomaly(deg)": -123.68566431026201,
        "RAAN(deg)": 169.99326588929722,
        "Satellite Name": "Constellation 1 762",
        "Satellite Number": 762,
        "Semi-Major Axis(m)": 7083131.272910544,
        "Time(s)": 119
    },
    {
        "Altitude(m)": 714209.739354864,
        "Argument of Periapsis(deg)": 0.007193760749448674,
        "Eccentricity": 0.0,
        "Inclination(deg)": 45.0,
        "Latitude(deg)": -36.2504044587218,
        "Longitude(deg)": -63.64935427470106,
        "Mean Anomaly(deg)": -123.62496317001204,
        "RAAN(deg)": 169.99320930013167,
        "Satellite Name": "Constellation 1 762",
        "Satellite Number": 762,
        "Semi-Major Axis(m)": 7083131.272910544,
        "Time(s)": 120
    },
    {
        "Altitude(m)": 714221.7509707795,
        "Argument of Periapsis(deg)": 0.007253708755694079,
        "Eccentricity": 0.0,
        "Inclination(deg)": 45.0,
        "Latitude(deg)": -36.27978836223415,
        "Longitude(deg)": -63.58784064183597,
        "Mean Anomaly(deg)": -123.5642620297622,
        "RAAN(deg)": 169.99315271096611,
        "Satellite Name": "Constellation 1 762",
        "Satellite Number": 762,
        "Semi-Major Axis(m)": 7083131.272910544,
        "Time(s)": 121
    },
    {
        "Altitude(m)": 714233.7495649772,
        "Argument of Periapsis(deg)": 0.0073136567619394854,
        "Eccentricity": 0.0,
        "Inclination(deg)": 45.0,
        "Latitude(deg)": -36.309136044336604,
        "Longitude(deg)": -63.52627797868866,
        "Mean Anomaly(deg)": -123.50356088951227,
        "RAAN(deg)": 169.99309612180053,
        "Satellite Name": "Constellation 1 762",
        "Satellite Number": 762,
        "Semi-Major Axis(m)": 7083131.272910544,
        "Time(s)": 122
    },
    {
        "Altitude(m)": 714245.735094179,
        "Argument of Periapsis(deg)": 0.0073736047681848904,
        "Eccentricity": 0.0,
        "Inclination(deg)": 45.0,
        "Latitude(deg)": -36.33844744016555,
        "Longitude(deg)": -63.46466625624908,
        "Mean Anomaly(deg)": -123.44285974926238,
        "RAAN(deg)": 169.99303953263498,
        "Satellite Name": "Constellation 1 762",
        "Satellite Number": 762,
        "Semi-Major Axis(m)": 7083131.272910544,
        "Time(s)": 123
    },
    {
        "Altitude(m)": 714257.7075151451,
        "Argument of Periapsis(deg)": 0.007433552774430298,
        "Eccentricity": 0.0,
        "Inclination(deg)": 45.0,
        "Latitude(deg)": -36.367722484804126,
        "Longitude(deg)": -63.40300544576179,
        "Mean Anomaly(deg)": -123.3821586090125,
        "RAAN(deg)": 169.99298294346937,
        "Satellite Name": "Constellation 1 762",
        "Satellite Number": 762,
        "Semi-Major Axis(m)": 7083131.272910544,
        "Time(s)": 124
    },
    {
        "Altitude(m)": 714269.6667846742,
        "Argument of Periapsis(deg)": 0.007493500780675703,
        "Eccentricity": 0.0,
        "Inclination(deg)": 45.0,
        "Latitude(deg)": -36.39696111328234,
        "Longitude(deg)": -63.34129551872783,
        "Mean Anomaly(deg)": -123.32145746876266,
        "RAAN(deg)": 169.99292635430382,
        "Satellite Name": "Constellation 1 762",
        "Satellite Number": 762,
        "Semi-Major Axis(m)": 7083131.272910544,
        "Time(s)": 125
    },
    {
        "Altitude(m)": 714281.6128596092,
        "Argument of Periapsis(deg)": 0.007553448786921108,
        "Eccentricity": 0.0,
        "Inclination(deg)": 45.0,
        "Latitude(deg)": -36.42616326057759,
        "Longitude(deg)": -63.279536615002606,
        "Mean Anomaly(deg)": -123.26075632851271,
        "RAAN(deg)": 169.99286976513827,
        "Satellite Name": "Constellation 1 762",
        "Satellite Number": 762,
        "Semi-Major Axis(m)": 7083131.272910544,
        "Time(s)": 126
    },
    {
        "Altitude(m)": 714293.5456968435,
        "Argument of Periapsis(deg)": 0.007613396793166514,
        "Eccentricity": 0.0,
        "Inclination(deg)": 45.0,
        "Latitude(deg)": -36.45532886161429,
        "Longitude(deg)": -63.217728370409034,
        "Mean Anomaly(deg)": -123.2000551882628,
        "RAAN(deg)": 169.99281317597269,
        "Satellite Name": "Constellation 1 762",
        "Satellite Number": 762,
        "Semi-Major Axis(m)": 7083131.272910544,
        "Time(s)": 127
    },
    {
        "Altitude(m)": 714305.4652533027,
        "Argument of Periapsis(deg)": 0.007673344799411918,
        "Eccentricity": 0.0,
        "Inclination(deg)": 45.0,
        "Latitude(deg)": -36.48445785126498,
        "Longitude(deg)": -63.155870925321814,
        "Mean Anomaly(deg)": -123.13935404801292,
        "RAAN(deg)": 169.9927565868071,
        "Satellite Name": "Constellation 1 762",
        "Satellite Number": 762,
        "Semi-Major Axis(m)": 7083131.272910544,
        "Time(s)": 128
    },
    {
        "Altitude(m)": 714317.3714859663,
        "Argument of Periapsis(deg)": 0.007733292805657325,
        "Eccentricity": 0.0,
        "Inclination(deg)": 45.0,
        "Latitude(deg)": -36.51355016435026,
        "Longitude(deg)": -63.0939642522796,
        "Mean Anomaly(deg)": -123.07865290776303,
        "RAAN(deg)": 169.99269999764155,
        "Satellite Name": "Constellation 1 762",
        "Satellite Number": 762,
        "Semi-Major Axis(m)": 7083131.272910544,
        "Time(s)": 129
    },
    {
        "Altitude(m)": 714329.2643518487,
        "Argument of Periapsis(deg)": 0.00779324081190273,
        "Eccentricity": 0.0,
        "Inclination(deg)": 45.0,
        "Latitude(deg)": -36.542605735638915,
        "Longitude(deg)": -63.032008324084224,
        "Mean Anomaly(deg)": -123.01795176751305,
        "RAAN(deg)": 169.99264340847597,
        "Satellite Name": "Constellation 1 762",
        "Satellite Number": 762,
        "Semi-Major Axis(m)": 7083131.272910544,
        "Time(s)": 130
    },
    {
        "Altitude(m)": 714341.1438080115,
        "Argument of Periapsis(deg)": 0.007853188818148135,
        "Eccentricity": 0.0,
        "Inclination(deg)": 45.0,
        "Latitude(deg)": -36.57162449984815,
        "Longitude(deg)": -62.97000311380209,
        "Mean Anomaly(deg)": -122.9572506272632,
        "RAAN(deg)": 169.99258681931042,
        "Satellite Name": "Constellation 1 762",
        "Satellite Number": 762,
        "Semi-Major Axis(m)": 7083131.272910544,
        "Time(s)": 131
    },
    {
        "Altitude(m)": 714353.0098115671,
        "Argument of Periapsis(deg)": 0.007913136824393542,
        "Eccentricity": 0.0,
        "Inclination(deg)": 45.0,
        "Latitude(deg)": -36.600606391644256,
        "Longitude(deg)": -62.90794859476466,
        "Mean Anomaly(deg)": -122.89654948701333,
        "RAAN(deg)": 169.99253023014484,
        "Satellite Name": "Constellation 1 762",
        "Satellite Number": 762,
        "Semi-Major Axis(m)": 7083131.272910544,
        "Time(s)": 132
    }
]